IRIDIUM 57 [-]          
1 25273U 98019B   23251.89006657  .00000488  00000+0  16491-3 0  9993
2 25273  86.3933  56.2945 0002095  90.8418 269.3018 14.34887726331938
IRIDIUM 63 [-]          
1 25286U 98021B   23251.80706875  .00000459  00000+0  15309-3 0  9995
2 25286  86.4046 353.2863 0002076  98.5468 261.5964 14.35397165330944
IRIDIUM 69 [-]          
1 25319U 98026A   23251.86299340  .00000736  00000+0  22963-3 0  9999
2 25319  86.4039   8.4517 0002898  43.7770 316.3658 14.39546228329899
IRIDIUM 71 [-]          
1 25320U 98026B   23251.85731163  .00000602  00000+0  18536-3 0  9997
2 25320  86.4036   3.2989 0004134  77.6495 282.5167 14.39890398330407
IRIDIUM 73 [-]          
1 25344U 98032C   23252.17360283  .00000534  00000+0  13264-3 0  9994
2 25344  86.4442 321.0827 0002458  77.3020 282.8459 14.50008832337056
IRIDIUM 82 [-]          
1 25467U 98051A   23251.86916257  .00016258  00000+0  98094-3 0  9998
2 25467  86.3917  58.3618 0149452 170.7439 189.6607 15.01631859326004
IRIDIUM 2 [-]           
1 25527U 98066A   23251.68452048  .00023696  00000+0  60915-3 0  9999
2 25527  85.5198 120.8741 0005369   4.5340 355.5960 15.39133228363991
